STARLINK-35472          
1 65913U 25225D   25300.17059409  .00142508  00000+0  95920-3 0  9992
2 65913  53.1607  69.5788 0000704 117.9427 242.1664 15.74231398  3914
STARLINK-35524          
1 65914U 25225E   25300.17025848  .00373543  00000+0  24302-2 0  9993
2 65914  53.1602  69.5775 0001083 344.4987  15.6000 15.74314441  3913
STARLINK-35539          
1 65915U 25225F   25300.16668980 -.02463399  00000+0 -26306-1 0  9991
2 65915  53.1599  69.6298 0000739  78.5320 244.3913 15.66687672  3894
STARLINK-35521          
1 65916U 25225G   25300.16958005  .00138014  00000+0  92932-3 0  9991
2 65916  53.1611  69.5717 0000682  97.1044 263.0053 15.74237964  3912
STARLINK-35478          
1 65917U 25225H   25300.16890582  .00289432  00000+0  19087-2 0  9997
2 65917  53.1607  69.5672 0000759  88.5146 271.5961 15.74245610  3919
STARLINK-35516          
1 65918U 25225J   25300.16924091  .00140821  00000+0  94783-3 0  9996
2 65918  53.1600  69.5696 0000869  65.2909 294.8201 15.74237609  3914
STARLINK-35519          
1 65919U 25225K   25300.16856589  .00170348  00000+0  11413-2 0  9998
2 65919  53.1605  69.5666 0000763  57.8537 302.2557 15.74243789  3918
STARLINK-33902          
1 65920U 25225L   25300.16822625  .00208654  00000+0  13897-2 0  9994
2 65920  53.1603  69.5622 0000658  95.1228 264.9867 15.74260206  3916
STARLINK-35530          
1 65921U 25225M   25300.16788944  .00130237  00000+0  87851-3 0  9993
2 65921  53.1602  69.5610 0000585 117.2995 242.8085 15.74224689  3911
STARLINK-35544          
1 65922U 25225N   25300.16754987  .00170863  00000+0  11445-2 0  9998
2 65922  53.1606  69.5582 0000655 108.0394 252.0698 15.74248532  3919
STARLINK-35484          
1 65923U 25225P   25300.16721279  .00182941  00000+0  12229-2 0  9998
2 65923  53.1603  69.5564 0000701  87.6030 272.5070 15.74256395  3915
STARLINK-34994          
1 65924U 25225Q   25300.16687484  .00149611  00000+0  10056-2 0  9991
2 65924  53.1602  69.5544 0000584 124.6548 235.4526 15.74239535  3919
