CCSDS_OMM_VERS = 2.0
CREATION_DATE  = 
ORIGINATOR     = 

OBJECT_NAME    = STARLINK-35472
OBJECT_ID      = 2025-225D
CENTER_NAME    = EARTH
REF_FRAME      = TEME
TIME_SYSTEM    = UTC
MEAN_ELEMENT_THEORY = SGP/SGP4

EPOCH          = 2025-10-27T04:05:39.329376
MEAN_MOTION    = 15.74231398
ECCENTRICITY   = .0000704
INCLINATION    = 53.1607
RA_OF_ASC_NODE = 69.5788
ARG_OF_PERICENTER = 117.9427
MEAN_ANOMALY   = 242.1664

EPHEMERIS_TYPE = 0
CLASSIFICATION_TYPE = U
NORAD_CAT_ID   = 65913
ELEMENT_SET_NO = 999
REV_AT_EPOCH   = 391
BSTAR          = .9592E-3
MEAN_MOTION_DOT = .142508E-2
MEAN_MOTION_DDOT = 0

CCSDS_OMM_VERS = 2.0
CREATION_DATE  = 
ORIGINATOR     = 

OBJECT_NAME    = STARLINK-35524
OBJECT_ID      = 2025-225E
CENTER_NAME    = EARTH
REF_FRAME      = TEME
TIME_SYSTEM    = UTC
MEAN_ELEMENT_THEORY = SGP/SGP4

EPOCH          = 2025-10-27T04:05:10.332672
MEAN_MOTION    = 15.74314441
ECCENTRICITY   = .0001083
INCLINATION    = 53.1602
RA_OF_ASC_NODE = 69.5775
ARG_OF_PERICENTER = 344.4987
MEAN_ANOMALY   = 15.6000

EPHEMERIS_TYPE = 0
CLASSIFICATION_TYPE = U
NORAD_CAT_ID   = 65914
ELEMENT_SET_NO = 999
REV_AT_EPOCH   = 391
BSTAR          = .24302E-2
MEAN_MOTION_DOT = .373543E-2
MEAN_MOTION_DDOT = 0

CCSDS_OMM_VERS = 2.0
CREATION_DATE  = 
ORIGINATOR     = 

OBJECT_NAME    = STARLINK-35539
OBJECT_ID      = 2025-225F
CENTER_NAME    = EARTH
REF_FRAME      = TEME
TIME_SYSTEM    = UTC
MEAN_ELEMENT_THEORY = SGP/SGP4

EPOCH          = 2025-10-27T04:00:01.998720
MEAN_MOTION    = 15.66687672
ECCENTRICITY   = .0000739
INCLINATION    = 53.1599
RA_OF_ASC_NODE = 69.6298
ARG_OF_PERICENTER = 78.5320
MEAN_ANOMALY   = 244.3913

EPHEMERIS_TYPE = 0
CLASSIFICATION_TYPE = U
NORAD_CAT_ID   = 65915
ELEMENT_SET_NO = 999
REV_AT_EPOCH   = 389
BSTAR          = -.26306E-1
MEAN_MOTION_DOT = -.2463399E-1
MEAN_MOTION_DDOT = 0

CCSDS_OMM_VERS = 2.0
CREATION_DATE  = 
ORIGINATOR     = 

OBJECT_NAME    = STARLINK-35521
OBJECT_ID      = 2025-225G
CENTER_NAME    = EARTH
REF_FRAME      = TEME
TIME_SYSTEM    = UTC
MEAN_ELEMENT_THEORY = SGP/SGP4

EPOCH          = 2025-10-27T04:04:11.716320
MEAN_MOTION    = 15.74237964
ECCENTRICITY   = .0000682
INCLINATION    = 53.1611
RA_OF_ASC_NODE = 69.5717
ARG_OF_PERICENTER = 97.1044
MEAN_ANOMALY   = 263.0053

EPHEMERIS_TYPE = 0
CLASSIFICATION_TYPE = U
NORAD_CAT_ID   = 65916
ELEMENT_SET_NO = 999
REV_AT_EPOCH   = 391
BSTAR          = .92932E-3
MEAN_MOTION_DOT = .138014E-2
MEAN_MOTION_DDOT = 0

CCSDS_OMM_VERS = 2.0
CREATION_DATE  = 
ORIGINATOR     = 

OBJECT_NAME    = STARLINK-35478
OBJECT_ID      = 2025-225H
CENTER_NAME    = EARTH
REF_FRAME      = TEME
TIME_SYSTEM    = UTC
MEAN_ELEMENT_THEORY = SGP/SGP4

EPOCH          = 2025-10-27T04:03:13.462848
MEAN_MOTION    = 15.74245610
ECCENTRICITY   = .0000759
INCLINATION    = 53.1607
RA_OF_ASC_NODE = 69.5672
ARG_OF_PERICENTER = 88.5146
MEAN_ANOMALY   = 271.5961

EPHEMERIS_TYPE = 0
CLASSIFICATION_TYPE = U
NORAD_CAT_ID   = 65917
ELEMENT_SET_NO = 999
REV_AT_EPOCH   = 391
BSTAR          = .19087E-2
MEAN_MOTION_DOT = .289432E-2
MEAN_MOTION_DDOT = 0

CCSDS_OMM_VERS = 2.0
CREATION_DATE  = 
ORIGINATOR     = 

OBJECT_NAME    = STARLINK-35516
OBJECT_ID      = 2025-225J
CENTER_NAME    = EARTH
REF_FRAME      = TEME
TIME_SYSTEM    = UTC
MEAN_ELEMENT_THEORY = SGP/SGP4

EPOCH          = 2025-10-27T04:03:42.414624
MEAN_MOTION    = 15.74237609
ECCENTRICITY   = .0000869
INCLINATION    = 53.1600
RA_OF_ASC_NODE = 69.5696
ARG_OF_PERICENTER = 65.2909
MEAN_ANOMALY   = 294.8201

EPHEMERIS_TYPE = 0
CLASSIFICATION_TYPE = U
NORAD_CAT_ID   = 65918
ELEMENT_SET_NO = 999
REV_AT_EPOCH   = 391
BSTAR          = .94783E-3
MEAN_MOTION_DOT = .140821E-2
MEAN_MOTION_DDOT = 0

CCSDS_OMM_VERS = 2.0
CREATION_DATE  = 
ORIGINATOR     = 

OBJECT_NAME    = STARLINK-35519
OBJECT_ID      = 2025-225K
CENTER_NAME    = EARTH
REF_FRAME      = TEME
TIME_SYSTEM    = UTC
MEAN_ELEMENT_THEORY = SGP/SGP4

EPOCH          = 2025-10-27T04:02:44.092896
MEAN_MOTION    = 15.74243789
ECCENTRICITY   = .0000763
INCLINATION    = 53.1605
RA_OF_ASC_NODE = 69.5666
ARG_OF_PERICENTER = 57.8537
MEAN_ANOMALY   = 302.2557

EPHEMERIS_TYPE = 0
CLASSIFICATION_TYPE = U
NORAD_CAT_ID   = 65919
ELEMENT_SET_NO = 999
REV_AT_EPOCH   = 391
BSTAR          = .11413E-2
MEAN_MOTION_DOT = .170348E-2
MEAN_MOTION_DDOT = 0

CCSDS_OMM_VERS = 2.0
CREATION_DATE  = 
ORIGINATOR     = 

OBJECT_NAME    = STARLINK-33902
OBJECT_ID      = 2025-225L
CENTER_NAME    = EARTH
REF_FRAME      = TEME
TIME_SYSTEM    = UTC
MEAN_ELEMENT_THEORY = SGP/SGP4

EPOCH          = 2025-10-27T04:02:14.748000
MEAN_MOTION    = 15.74260206
ECCENTRICITY   = .0000658
INCLINATION    = 53.1603
RA_OF_ASC_NODE = 69.5622
ARG_OF_PERICENTER = 95.1228
MEAN_ANOMALY   = 264.9867

EPHEMERIS_TYPE = 0
CLASSIFICATION_TYPE = U
NORAD_CAT_ID   = 65920
ELEMENT_SET_NO = 999
REV_AT_EPOCH   = 391
BSTAR          = .13897E-2
MEAN_MOTION_DOT = .208654E-2
MEAN_MOTION_DDOT = 0

CCSDS_OMM_VERS = 2.0
CREATION_DATE  = 
ORIGINATOR     = 

OBJECT_NAME    = STARLINK-35530
OBJECT_ID      = 2025-225M
CENTER_NAME    = EARTH
REF_FRAME      = TEME
TIME_SYSTEM    = UTC
MEAN_ELEMENT_THEORY = SGP/SGP4

EPOCH          = 2025-10-27T04:01:45.647616
MEAN_MOTION    = 15.74224689
ECCENTRICITY   = .0000585
INCLINATION    = 53.1602
RA_OF_ASC_NODE = 69.5610
ARG_OF_PERICENTER = 117.2995
MEAN_ANOMALY   = 242.8085

EPHEMERIS_TYPE = 0
CLASSIFICATION_TYPE = U
NORAD_CAT_ID   = 65921
ELEMENT_SET_NO = 999
REV_AT_EPOCH   = 391
BSTAR          = .87851E-3
MEAN_MOTION_DOT = .130237E-2
MEAN_MOTION_DDOT = 0

CCSDS_OMM_VERS = 2.0
CREATION_DATE  = 
ORIGINATOR     = 

OBJECT_NAME    = STARLINK-35544
OBJECT_ID      = 2025-225N
CENTER_NAME    = EARTH
REF_FRAME      = TEME
TIME_SYSTEM    = UTC
MEAN_ELEMENT_THEORY = SGP/SGP4

EPOCH          = 2025-10-27T04:01:16.308768
MEAN_MOTION    = 15.74248532
ECCENTRICITY   = .0000655
INCLINATION    = 53.1606
RA_OF_ASC_NODE = 69.5582
ARG_OF_PERICENTER = 108.0394
MEAN_ANOMALY   = 252.0698

EPHEMERIS_TYPE = 0
CLASSIFICATION_TYPE = U
NORAD_CAT_ID   = 65922
ELEMENT_SET_NO = 999
REV_AT_EPOCH   = 391
BSTAR          = .11445E-2
MEAN_MOTION_DOT = .170863E-2
MEAN_MOTION_DDOT = 0

CCSDS_OMM_VERS = 2.0
CREATION_DATE  = 
ORIGINATOR     = 

OBJECT_NAME    = STARLINK-35484
OBJECT_ID      = 2025-225P
CENTER_NAME    = EARTH
REF_FRAME      = TEME
TIME_SYSTEM    = UTC
MEAN_ELEMENT_THEORY = SGP/SGP4

EPOCH          = 2025-10-27T04:00:47.185056
MEAN_MOTION    = 15.74256395
ECCENTRICITY   = .0000701
INCLINATION    = 53.1603
RA_OF_ASC_NODE = 69.5564
ARG_OF_PERICENTER = 87.6030
MEAN_ANOMALY   = 272.5070

EPHEMERIS_TYPE = 0
CLASSIFICATION_TYPE = U
NORAD_CAT_ID   = 65923
ELEMENT_SET_NO = 999
REV_AT_EPOCH   = 391
BSTAR          = .12229E-2
MEAN_MOTION_DOT = .182941E-2
MEAN_MOTION_DDOT = 0

CCSDS_OMM_VERS = 2.0
CREATION_DATE  = 
ORIGINATOR     = 

OBJECT_NAME    = STARLINK-34994
OBJECT_ID      = 2025-225Q
CENTER_NAME    = EARTH
REF_FRAME      = TEME
TIME_SYSTEM    = UTC
MEAN_ELEMENT_THEORY = SGP/SGP4

EPOCH          = 2025-10-27T04:00:17.986176
MEAN_MOTION    = 15.74239535
ECCENTRICITY   = .0000584
INCLINATION    = 53.1602
RA_OF_ASC_NODE = 69.5544
ARG_OF_PERICENTER = 124.6548
MEAN_ANOMALY   = 235.4526

EPHEMERIS_TYPE = 0
CLASSIFICATION_TYPE = U
NORAD_CAT_ID   = 65924
ELEMENT_SET_NO = 999
REV_AT_EPOCH   = 391
BSTAR          = .10056E-2
MEAN_MOTION_DOT = .149611E-2
MEAN_MOTION_DDOT = 0

